FLYING LAPTOP           
1 42831U 17042G   26065.84385751  .00005714  00000+0  45626-3 0  9994
2 42831  97.4265 225.6450 0018910 104.6059 255.7264 15.00497012471104
HAWK-A                  
1 43765U 18099H   26065.45731217  .00008332  00000+0  34986-3 0  9999
2 43765  97.4055 119.0664 0034329 287.3914  72.3569 15.23165898397457
HAWK-B                  
1 43794U 18099AN  26065.09682656  .00007803  00000+0  34558-3 0  9990
2 43794  97.4104 118.3322 0031513 306.5962  53.2375 15.21466985397357
HAWK-C                  
1 43799U 18099AT  26065.39476804  .00009761  00000+0  36980-3 0  9990
2 43799  97.4032 119.4328 0040470 289.5358  70.1512 15.26329234398229
SALSAT                  
1 46495U 20068K   26065.39904136  .00011274  00000+0  41380-3 0  9991
2 46495  97.8855  62.3380 0008503 310.6744  49.3754 15.28102969299651
HAWK-2C                 
1 47502U 21006CT  26065.08647923  .00007634  00000+0  24007-3 0  9990
2 47502  97.2418 111.4790 0006586 197.2619 162.8401 15.33219899283694
HAWK-2A                 
1 47505U 21006CW  26065.61214211  .00009056  00000+0  28408-3 0  9991
2 47505  97.2463 112.6110 0006111 199.1222 160.9792 15.33248346283771
HAWK-2B                 
1 47508U 21006CZ  26065.08683353  .00008135  00000+0  25571-3 0  9997
2 47508  97.2334 110.6010 0006672 198.7979 161.3018 15.33214288283699
HAWK-3B                 
1 48931U 21059BE  26065.40970766  .00040778  00000+0  48057-3 0  9992
2 48931  97.6715 253.0217 0005291 350.9783   9.1377 15.61262501261773
HAWK-3C                 
1 48948U 21059BX  26065.28128879  .00039525  00000+0  46609-3 0  9995
2 48948  97.6862 258.3753 0005749 352.6085   7.5086 15.61250200261759
HAWK-3A                 
1 48957U 21059CG  26065.08882924  .00037057  00000+0  43742-3 0  9994
2 48957  97.6797 255.4580 0005343 352.8523   7.2656 15.61239739261722
HAWK-5C                 
1 52754U 22057Y   26065.81437778  .00027435  00000+0  53693-3 0  9992
2 52754  97.6453 219.2821 0005622  85.5152 274.6739 15.47373806210493
HAWK-5B                 
1 52756U 22057AA  26065.87891288  .00028050  00000+0  54878-3 0  9990
2 52756  97.6455 217.6905 0005600  79.9984 280.1897 15.47378760210501
HAWK-5A                 
1 52757U 22057AB  26065.81396647  .00027991  00000+0  54764-3 0  9991
2 52757  97.6456 218.4560 0006016  82.3305 277.8627 15.47375994210494
HAWK-6B                 
1 55324U 23011A   26065.52327582  .00008286  00000+0  36491-3 0  9998
2 55324  40.5119 230.4147 0002450   0.8362 359.2451 15.21857101172192
HAWK-6C                 
1 55326U 23011C   26065.45706059  .00007836  00000+0  34561-3 0  9998
2 55326  40.4835 227.6749 0002970 347.2114  12.8619 15.21846806172192
HAWK-6A                 
1 55327U 23011D   26065.78518394  .00008953  00000+0  39351-3 0  9991
2 55327  40.4981 227.3681 0002606 345.4771  14.5962 15.21859003172241
