[{"OBJECT_NAME":"FLYING LAPTOP","OBJECT_ID":"2017-042G","EPOCH":"2026-03-06T20:15:09.288864","MEAN_MOTION":15.00497012,"ECCENTRICITY":0.001891,"INCLINATION":97.4265,"RA_OF_ASC_NODE":225.645,"ARG_OF_PERICENTER":104.6059,"MEAN_ANOMALY":255.7264,"EPHEMERIS_TYPE":0,"CLASSIFICATION_TYPE":"U","NORAD_CAT_ID":42831,"ELEMENT_SET_NO":999,"REV_AT_EPOCH":47110,"BSTAR":0.00045626,"MEAN_MOTION_DOT":5.714e-5,"MEAN_MOTION_DDOT":0},{"OBJECT_NAME":"HAWK-A","OBJECT_ID":"2018-099H","EPOCH":"2026-03-06T10:58:31.771488","MEAN_MOTION":15.23165898,"ECCENTRICITY":0.00343297,"INCLINATION":97.4055,"RA_OF_ASC_NODE":119.0664,"ARG_OF_PERICENTER":287.3914,"MEAN_ANOMALY":72.3569,"EPHEMERIS_TYPE":0,"CLASSIFICATION_TYPE":"U","NORAD_CAT_ID":43765,"ELEMENT_SET_NO":999,"REV_AT_EPOCH":39745,"BSTAR":0.00034985997,"MEAN_MOTION_DOT":8.332e-5,"MEAN_MOTION_DDOT":0},{"OBJECT_NAME":"HAWK-B","OBJECT_ID":"2018-099AN","EPOCH":"2026-03-06T02:19:25.814784","MEAN_MOTION":15.21466985,"ECCENTRICITY":0.00315133,"INCLINATION":97.4104,"RA_OF_ASC_NODE":118.3322,"ARG_OF_PERICENTER":306.5962,"MEAN_ANOMALY":53.2375,"EPHEMERIS_TYPE":0,"CLASSIFICATION_TYPE":"U","NORAD_CAT_ID":43794,"ELEMENT_SET_NO":999,"REV_AT_EPOCH":39735,"BSTAR":0.00034557602,"MEAN_MOTION_DOT":7.803e-5,"MEAN_MOTION_DDOT":0},{"OBJECT_NAME":"HAWK-C","OBJECT_ID":"2018-099AT","EPOCH":"2026-03-06T09:28:27.958656","MEAN_MOTION":15.26329234,"ECCENTRICITY":0.00404707,"INCLINATION":97.4032,"RA_OF_ASC_NODE":119.4328,"ARG_OF_PERICENTER":289.5358,"MEAN_ANOMALY":70.1512,"EPHEMERIS_TYPE":0,"CLASSIFICATION_TYPE":"U","NORAD_CAT_ID":43799,"ELEMENT_SET_NO":999,"REV_AT_EPOCH":39822,"BSTAR":0.00036980452,"MEAN_MOTION_DOT":9.761e-5,"MEAN_MOTION_DDOT":0},{"OBJECT_NAME":"SALSAT","OBJECT_ID":"2020-068K","EPOCH":"2026-03-06T09:34:37.173504","MEAN_MOTION":15.28102969,"ECCENTRICITY":0.00085035,"INCLINATION":97.8855,"RA_OF_ASC_NODE":62.338,"ARG_OF_PERICENTER":310.6744,"MEAN_ANOMALY":49.3754,"EPHEMERIS_TYPE":0,"CLASSIFICATION_TYPE":"U","NORAD_CAT_ID":46495,"ELEMENT_SET_NO":999,"REV_AT_EPOCH":29965,"BSTAR":0.00041380483,"MEAN_MOTION_DOT":0.00011274,"MEAN_MOTION_DDOT":0},{"OBJECT_NAME":"HAWK-2C","OBJECT_ID":"2021-006CT","EPOCH":"2026-03-06T02:04:31.805472","MEAN_MOTION":15.33219899,"ECCENTRICITY":0.00065864,"INCLINATION":97.2418,"RA_OF_ASC_NODE":111.479,"ARG_OF_PERICENTER":197.2619,"MEAN_ANOMALY":162.8401,"EPHEMERIS_TYPE":0,"CLASSIFICATION_TYPE":"U","NORAD_CAT_ID":47502,"ELEMENT_SET_NO":999,"REV_AT_EPOCH":28369,"BSTAR":0.00024007215,"MEAN_MOTION_DOT":7.634e-5,"MEAN_MOTION_DDOT":0},{"OBJECT_NAME":"HAWK-2A","OBJECT_ID":"2021-006CW","EPOCH":"2026-03-06T14:41:29.078304","MEAN_MOTION":15.33248346,"ECCENTRICITY":0.00061119,"INCLINATION":97.2463,"RA_OF_ASC_NODE":112.611,"ARG_OF_PERICENTER":199.1222,"MEAN_ANOMALY":160.9792,"EPHEMERIS_TYPE":0,"CLASSIFICATION_TYPE":"U","NORAD_CAT_ID":47505,"ELEMENT_SET_NO":999,"REV_AT_EPOCH":28377,"BSTAR":0.00028408497,"MEAN_MOTION_DOT":9.056e-5,"MEAN_MOTION_DDOT":0},{"OBJECT_NAME":"HAWK-2B","OBJECT_ID":"2021-006CZ","EPOCH":"2026-03-06T02:05:02.416992","MEAN_MOTION":15.33214288,"ECCENTRICITY":0.00066723,"INCLINATION":97.2334,"RA_OF_ASC_NODE":110.601,"ARG_OF_PERICENTER":198.7979,"MEAN_ANOMALY":161.3018,"EPHEMERIS_TYPE":0,"CLASSIFICATION_TYPE":"U","NORAD_CAT_ID":47508,"ELEMENT_SET_NO":999,"REV_AT_EPOCH":28369,"BSTAR":0.00025570703,"MEAN_MOTION_DOT":8.135e-5,"MEAN_MOTION_DDOT":0},{"OBJECT_NAME":"HAWK-3B","OBJECT_ID":"2021-059BE","EPOCH":"2026-03-06T09:49:58.741824","MEAN_MOTION":15.61262501,"ECCENTRICITY":0.00052913,"INCLINATION":97.6715,"RA_OF_ASC_NODE":253.0217,"ARG_OF_PERICENTER":350.9783,"MEAN_ANOMALY":9.1377,"EPHEMERIS_TYPE":0,"CLASSIFICATION_TYPE":"U","NORAD_CAT_ID":48931,"ELEMENT_SET_NO":999,"REV_AT_EPOCH":26177,"BSTAR":0.00048057478,"MEAN_MOTION_DOT":0.00040778,"MEAN_MOTION_DDOT":0},{"OBJECT_NAME":"HAWK-3C","OBJECT_ID":"2021-059BX","EPOCH":"2026-03-06T06:45:03.351456","MEAN_MOTION":15.612502,"ECCENTRICITY":0.00057491,"INCLINATION":97.6862,"RA_OF_ASC_NODE":258.3753,"ARG_OF_PERICENTER":352.6085,"MEAN_ANOMALY":7.5086,"EPHEMERIS_TYPE":0,"CLASSIFICATION_TYPE":"U","NORAD_CAT_ID":48948,"ELEMENT_SET_NO":999,"REV_AT_EPOCH":26175,"BSTAR":0.00046608911,"MEAN_MOTION_DOT":0.00039525,"MEAN_MOTION_DDOT":0},{"OBJECT_NAME":"HAWK-3A","OBJECT_ID":"2021-059CG","EPOCH":"2026-03-06T02:07:54.846336","MEAN_MOTION":15.61239739,"ECCENTRICITY":0.00053431,"INCLINATION":97.6797,"RA_OF_ASC_NODE":255.458,"ARG_OF_PERICENTER":352.8523,"MEAN_ANOMALY":7.2656,"EPHEMERIS_TYPE":0,"CLASSIFICATION_TYPE":"U","NORAD_CAT_ID":48957,"ELEMENT_SET_NO":999,"REV_AT_EPOCH":26172,"BSTAR":0.00043742024,"MEAN_MOTION_DOT":0.00037057,"MEAN_MOTION_DDOT":0},{"OBJECT_NAME":"HAWK-5C","OBJECT_ID":"2022-057Y","EPOCH":"2026-03-06T19:32:42.240192","MEAN_MOTION":15.47373806,"ECCENTRICITY":0.0005622,"INCLINATION":97.6453,"RA_OF_ASC_NODE":219.2821,"ARG_OF_PERICENTER":85.5152,"MEAN_ANOMALY":274.6739,"EPHEMERIS_TYPE":0,"CLASSIFICATION_TYPE":"U","NORAD_CAT_ID":52754,"ELEMENT_SET_NO":999,"REV_AT_EPOCH":21049,"BSTAR":0.00053693,"MEAN_MOTION_DOT":0.00027435,"MEAN_MOTION_DDOT":0},{"OBJECT_NAME":"HAWK-5B","OBJECT_ID":"2022-057AA","EPOCH":"2026-03-06T21:05:38.072832","MEAN_MOTION":15.4737876,"ECCENTRICITY":0.00056,"INCLINATION":97.6455,"RA_OF_ASC_NODE":217.6905,"ARG_OF_PERICENTER":79.9984,"MEAN_ANOMALY":280.1897,"EPHEMERIS_TYPE":0,"CLASSIFICATION_TYPE":"U","NORAD_CAT_ID":52756,"ELEMENT_SET_NO":999,"REV_AT_EPOCH":21050,"BSTAR":0.00054878,"MEAN_MOTION_DOT":0.0002805,"MEAN_MOTION_DDOT":0},{"OBJECT_NAME":"HAWK-5A","OBJECT_ID":"2022-057AB","EPOCH":"2026-03-06T19:32:06.703008","MEAN_MOTION":15.47375994,"ECCENTRICITY":0.0006016,"INCLINATION":97.6456,"RA_OF_ASC_NODE":218.456,"ARG_OF_PERICENTER":82.3305,"MEAN_ANOMALY":277.8627,"EPHEMERIS_TYPE":0,"CLASSIFICATION_TYPE":"U","NORAD_CAT_ID":52757,"ELEMENT_SET_NO":999,"REV_AT_EPOCH":21049,"BSTAR":0.00054764,"MEAN_MOTION_DOT":0.00027991,"MEAN_MOTION_DDOT":0},{"OBJECT_NAME":"HAWK-6B","OBJECT_ID":"2023-011A","EPOCH":"2026-03-06T12:33:31.030848","MEAN_MOTION":15.21857101,"ECCENTRICITY":0.00024505,"INCLINATION":40.5119,"RA_OF_ASC_NODE":230.4147,"ARG_OF_PERICENTER":0.8362,"MEAN_ANOMALY":359.2451,"EPHEMERIS_TYPE":0,"CLASSIFICATION_TYPE":"U","NORAD_CAT_ID":55324,"ELEMENT_SET_NO":999,"REV_AT_EPOCH":17219,"BSTAR":0.00036490516,"MEAN_MOTION_DOT":8.286e-5,"MEAN_MOTION_DDOT":0},{"OBJECT_NAME":"HAWK-6C","OBJECT_ID":"2023-011C","EPOCH":"2026-03-06T10:58:10.034976","MEAN_MOTION":15.21846806,"ECCENTRICITY":0.000297,"INCLINATION":40.4835,"RA_OF_ASC_NODE":227.6749,"ARG_OF_PERICENTER":347.2114,"MEAN_ANOMALY":12.8619,"EPHEMERIS_TYPE":0,"CLASSIFICATION_TYPE":"U","NORAD_CAT_ID":55326,"ELEMENT_SET_NO":999,"REV_AT_EPOCH":17219,"BSTAR":0.00034561167,"MEAN_MOTION_DOT":7.836e-5,"MEAN_MOTION_DDOT":0},{"OBJECT_NAME":"HAWK-6A","OBJECT_ID":"2023-011D","EPOCH":"2026-03-06T18:50:39.892416","MEAN_MOTION":15.21859003,"ECCENTRICITY":0.0002606,"INCLINATION":40.4981,"RA_OF_ASC_NODE":227.3681,"ARG_OF_PERICENTER":345.4771,"MEAN_ANOMALY":14.5962,"EPHEMERIS_TYPE":0,"CLASSIFICATION_TYPE":"U","NORAD_CAT_ID":55327,"ELEMENT_SET_NO":999,"REV_AT_EPOCH":17224,"BSTAR":0.00039351,"MEAN_MOTION_DOT":8.953e-5,"MEAN_MOTION_DDOT":0}]
